{
  "type": "FeatureCollection",
  "features": [
    {
      "type": "Feature",
      "properties": {
        "norad_id": 55268,
        "name": "GPS BIII-6  (PRN 28)",
        "group": "gnss",
        "lat": -54.52459226704996,
        "lon": 54.36757770351909,
        "alt_km": 20189.295855163175,
        "timestamp": "2025-12-09T20:37:09.529907+00:00",
        "meta_object_name": "GPS BIII-6  (PRN 28)",
        "meta_object_id": "2023-009A",
        "meta_epoch": "2025-12-08T05:52:26.989248",
        "meta_mean_motion": 2.00555991,
        "meta_eccentricity": 0.0003615,
        "meta_inclination": 55.1046,
        "meta_ra_of_asc_node": 156.0217,
        "meta_arg_of_pericenter": 356.7859,
        "meta_mean_anomaly": 180.9144,
        "meta_ephemeris_type": 0,
        "meta_classification_type": "U",
        "meta_norad_cat_id": 55268,
        "meta_element_set_no": 999,
        "meta_rev_at_epoch": 2141,
        "meta_bstar": 0,
        "meta_mean_motion_dot": 5.9e-07,
        "meta_mean_motion_ddot": 0,
        "tle_line1": "1 55268U 23009A   25342.24475682  .00000059  00000+0  00000+0 0  9996",
        "tle_line2": "2 55268  55.1046 156.0217 0003615 356.7859 180.9144  2.00555991 21410"
      },
      "geometry": {
        "type": "Point",
        "coordinates": [
          54.36757770351909,
          -54.52459226704996
        ]
      }
    },
    {
      "type": "Feature",
      "properties": {
        "norad_id": 56564,
        "name": "BEIDOU-3 G4 (C62)",
        "group": "gnss",
        "lat": -0.761754770983475,
        "lon": -171.80083760429372,
        "alt_km": 35773.96932346178,
        "timestamp": "2025-12-09T20:37:09.529921+00:00",
        "meta_object_name": "BEIDOU-3 G4 (C62)",
        "meta_object_id": "2023-066A",
        "meta_epoch": "2025-12-09T14:20:03.306336",
        "meta_mean_motion": 1.00271258,
        "meta_eccentricity": 0.00030005,
        "meta_inclination": 0.8216,
        "meta_ra_of_asc_node": 301.8039,
        "meta_arg_of_pericenter": 235.3297,
        "meta_mean_anomaly": 276.5327,
        "meta_ephemeris_type": 0,
        "meta_classification_type": "U",
        "meta_norad_cat_id": 56564,
        "meta_element_set_no": 999,
        "meta_rev_at_epoch": 949,
        "meta_bstar": 0,
        "meta_mean_motion_dot": -1.09e-06,
        "meta_mean_motion_ddot": 0,
        "tle_line1": "1 56564U 23066A   25343.59726049 -.00000109  00000+0  00000+0 0  9991",
        "tle_line2": "2 56564   0.8216 301.8039 0003000 235.3297 276.5327  1.00271258  9493"
      },
      "geometry": {
        "type": "Point",
        "coordinates": [
          -171.80083760429372,
          -0.761754770983475
        ]
      }
    },
    {
      "type": "Feature",
      "properties": {
        "norad_id": 56759,
        "name": "NVS-01 (IRNSS-1J)",
        "group": "gnss",
        "lat": -2.6182861710260683,
        "lon": 157.4459467617909,
        "alt_km": 35796.526745473464,
        "timestamp": "2025-12-09T20:37:09.529935+00:00",
        "meta_object_name": "NVS-01 (IRNSS-1J)",
        "meta_object_id": "2023-076A",
        "meta_epoch": "2025-12-09T12:28:36.481152",
        "meta_mean_motion": 1.00264746,
        "meta_eccentricity": 0.00086493,
        "meta_inclination": 2.6259,
        "meta_ra_of_asc_node": 251.718,
        "meta_arg_of_pericenter": 8.5239,
        "meta_mean_anomaly": 134.8494,
        "meta_ephemeris_type": 0,
        "meta_classification_type": "U",
        "meta_norad_cat_id": 56759,
        "meta_element_set_no": 999,
        "meta_rev_at_epoch": 921,
        "meta_bstar": 0,
        "meta_mean_motion_dot": -3.34e-06,
        "meta_mean_motion_ddot": 0,
        "tle_line1": "1 56759U 23076A   25343.51986668 -.00000334  00000+0  00000+0 0  9995",
        "tle_line2": "2 56759   2.6259 251.7180 0008649   8.5239 134.8494  1.00264746  9211"
      },
      "geometry": {
        "type": "Point",
        "coordinates": [
          157.4459467617909,
          -2.6182861710260683
        ]
      }
    },
    {
      "type": "Feature",
      "properties": {
        "norad_id": 57517,
        "name": "COSMOS 2569 (703K)",
        "group": "gnss",
        "lat": 33.81142817121373,
        "lon": -118.99943526958609,
        "alt_km": 19147.52270417479,
        "timestamp": "2025-12-09T20:37:09.529947+00:00",
        "meta_object_name": "COSMOS 2569 (703K)",
        "meta_object_id": "2023-114A",
        "meta_epoch": "2025-12-09T04:54:16.689312",
        "meta_mean_motion": 2.13103889,
        "meta_eccentricity": 0.0010394,
        "meta_inclination": 65.1923,
        "meta_ra_of_asc_node": 79.033,
        "meta_arg_of_pericenter": 287.0321,
        "meta_mean_anomaly": 72.8717,
        "meta_ephemeris_type": 0,
        "meta_classification_type": "U",
        "meta_norad_cat_id": 57517,
        "meta_element_set_no": 999,
        "meta_rev_at_epoch": 1821,
        "meta_bstar": 0,
        "meta_mean_motion_dot": -1.4e-07,
        "meta_mean_motion_ddot": 0,
        "tle_line1": "1 57517U 23114A   25343.20435983 -.00000014  00000+0  00000+0 0  9991",
        "tle_line2": "2 57517  65.1923  79.0330 0010394 287.0321  72.8717  2.13103889 18214"
      },
      "geometry": {
        "type": "Point",
        "coordinates": [
          -118.99943526958609,
          33.81142817121373
        ]
      }
    },
    {
      "type": "Feature",
      "properties": {
        "norad_id": 58654,
        "name": "BEIDOU-3 M28 (C50)",
        "group": "gnss",
        "lat": 51.269194104230564,
        "lon": 127.32207626882999,
        "alt_km": 21528.25227553215,
        "timestamp": "2025-12-09T20:37:09.529958+00:00",
        "meta_object_name": "BEIDOU-3 M28 (C50)",
        "meta_object_id": "2023-207A",
        "meta_epoch": "2025-12-09T05:11:28.664736",
        "meta_mean_motion": 1.86229641,
        "meta_eccentricity": 0.0002291,
        "meta_inclination": 55.5815,
        "meta_ra_of_asc_node": 68.7207,
        "meta_arg_of_pericenter": 268.7348,
        "meta_mean_anomaly": 91.2612,
        "meta_ephemeris_type": 0,
        "meta_classification_type": "U",
        "meta_norad_cat_id": 58654,
        "meta_element_set_no": 999,
        "meta_rev_at_epoch": 1330,
        "meta_bstar": 0,
        "meta_mean_motion_dot": -4.9e-07,
        "meta_mean_motion_ddot": 0,
        "tle_line1": "1 58654U 23207A   25343.21630399 -.00000049  00000+0  00000+0 0  9994",
        "tle_line2": "2 58654  55.5815  68.7207 0002291 268.7348  91.2612  1.86229641 13308"
      },
      "geometry": {
        "type": "Point",
        "coordinates": [
          127.32207626882999,
          51.269194104230564
        ]
      }
    },
    {
      "type": "Feature",
      "properties": {
        "norad_id": 58655,
        "name": "BEIDOU-3 M26 (C48)",
        "group": "gnss",
        "lat": -21.69543350445807,
        "lon": -95.49951685248831,
        "alt_km": 21524.062765873266,
        "timestamp": "2025-12-09T20:37:09.529969+00:00",
        "meta_object_name": "BEIDOU-3 M26 (C48)",
        "meta_object_id": "2023-207B",
        "meta_epoch": "2025-12-09T13:13:20.106624",
        "meta_mean_motion": 1.86231165,
        "meta_eccentricity": 0.00036999,
        "meta_inclination": 55.5839,
        "meta_ra_of_asc_node": 68.6957,
        "meta_arg_of_pericenter": 254.5617,
        "meta_mean_anomaly": 105.42,
        "meta_ephemeris_type": 0,
        "meta_classification_type": "U",
        "meta_norad_cat_id": 58655,
        "meta_element_set_no": 999,
        "meta_rev_at_epoch": 1329,
        "meta_bstar": 0,
        "meta_mean_motion_dot": -5.1e-07,
        "meta_mean_motion_ddot": 0,
        "tle_line1": "1 58655U 23207B   25343.55092716 -.00000051  00000+0  00000+0 0  9990",
        "tle_line2": "2 58655  55.5839  68.6957 0003699 254.5617 105.4200  1.86231165 13294"
      },
      "geometry": {
        "type": "Point",
        "coordinates": [
          -95.49951685248831,
          -21.69543350445807
        ]
      }
    },
    {
      "type": "Feature",
      "properties": {
        "norad_id": 59598,
        "name": "GSAT0225 (GALILEO 29)",
        "group": "gnss",
        "lat": -38.70000140930253,
        "lon": 72.25490485647008,
        "alt_km": 23231.174598936854,
        "timestamp": "2025-12-09T20:37:09.529980+00:00",
        "meta_object_name": "GSAT0225 (GALILEO 29)",
        "meta_object_id": "2024-079A",
        "meta_epoch": "2025-12-07T13:01:48.128160",
        "meta_mean_motion": 1.70474573,
        "meta_eccentricity": 0.0002046,
        "meta_inclination": 54.9986,
        "meta_ra_of_asc_node": 106.4402,
        "meta_arg_of_pericenter": 173.6326,
        "meta_mean_anomaly": 155.0404,
        "meta_ephemeris_type": 0,
        "meta_classification_type": "U",
        "meta_norad_cat_id": 59598,
        "meta_element_set_no": 999,
        "meta_rev_at_epoch": 1004,
        "meta_bstar": 0,
        "meta_mean_motion_dot": 7e-08,
        "meta_mean_motion_ddot": 0,
        "tle_line1": "1 59598U 24079A   25341.54291815  .00000007  00000+0  00000+0 0  9993",
        "tle_line2": "2 59598  54.9986 106.4402 0002046 173.6326 155.0404  1.70474573 10048"
      },
      "geometry": {
        "type": "Point",
        "coordinates": [
          72.25490485647008,
          -38.70000140930253
        ]
      }
    }
  ]
}